#aV2020  9 23  0  0  0.00000000     288 DD+AD WGS84 FIT  NGA
## 2124 259200.00000000   300.00000000 59115 0.0000000000000
+   31     1  2  3  4  5  6  7  8  9 10 11 12 13 15 16 17 18
+         19 20 21 22 23 24 25 26 27 28 29 30 31 32  0  0  0
+          0  0  0  0  0  0  0  0  0  0  0  0  0  0  0  0  0
+          0  0  0  0  0  0  0  0  0  0  0  0  0  0  0  0  0
+          0  0  0  0  0  0  0  0  0  0  0  0  0  0  0  0  0
++         2  2  2  2  2  2  2  2  2  2  2  2  2  2  2  2  2
++         2  2  2  2  2  2  2  2  2  2  2  2  2  2  0  0  0
++         0  0  0  0  0  0  0  0  0  0  0  0  0  0  0  0  0
++         0  0  0  0  0  0  0  0  0  0  0  0  0  0  0  0  0
++         0  0  0  0  0  0  0  0  0  0  0  0  0  0  0  0  0
%c cc cc ccc ccc cccc cccc cccc cccc ccccc ccccc ccccc ccccc
%c cc cc ccc ccc cccc cccc cccc cccc ccccc ccccc ccccc ccccc
%f  0.0000000  0.000000000  0.00000000000  0.000000000000000
%f  0.0000000  0.000000000  0.00000000000  0.000000000000000
%i    0    0    0    0      0      0      0      0         0
%i    0    0    0    0      0      0      0      0         0
/*      NGA, ST. LOUIS,MO.                                  
/*   EPHEMERIS COMPUTED FROM 2 DAYS OF DATA                 
/*   EPOCHA v5 SMOOTHER                                     
/*   G1762 IERS2010 SATAF SATAPC                            
*  2020  9 23 13 50  0.00000000
P  1  20805.674638  14798.695934  -8149.221278     35.572771                    
V  1  -9783.420146  -2322.278188 -29756.594995     -0.008935                    
P  2  -1756.731469 -16422.662608  21453.021108   -520.335772                    
V  2  24606.748762   7629.869191   8072.248196     -0.051311                    
P  3  12602.771730  18120.865328  14767.473826   -307.114367                    
V  3    511.827093  18927.029553 -23435.952939     -0.105508                    
P  4  14626.233121   7505.020952  20874.707845   -137.933878                    
V  4 -21116.084530  16006.217339   9005.378250     -0.040869                    
P  5  -1787.710257 -26154.465685   3425.485090    -21.759850                    
V  5   3882.387086   3992.734298  31314.200497     -0.008840                    
P  6  13710.791139  -9360.306267  20792.812026   -328.060153                    
V  6  23924.742170  10745.144811 -10930.198489     -0.030845                    
P  7  25152.743795   4995.819324  -7495.546240   -378.672590                    
V  7   8030.329936   6233.829659  29325.461056     -0.081203                    
P  8   4968.234016  14813.041688 -21431.134062    -48.985726                    
V  8 -21794.055238  16377.628825   6521.570842     -0.013180                    
P  9  21770.000402  -3911.519365  14657.850705   -290.241228                    
V  9 -13305.039794  13369.076969  23220.067369     -0.055333                    
P 10 -12342.303895  12099.616916 -20005.932021   -462.036458                    
V 10  -4519.231230 -25283.347095 -12695.288161     -0.097542                    
P 11  13806.842797  13361.777203 -18675.969754   -156.334408                    
V 11 -22813.060003   3941.873506 -14773.651163      0.105606                    
P 12 -10304.522561 -20345.382939  13504.896119     63.404439                    
V 12    795.077827 -17525.654895 -25213.201704     -0.050618                    
P 13   4954.457074 -17956.445977 -19017.848605     48.002693                    
V 13  21359.391919 -10800.231018  15974.806670      0.035778                    
P 15  -7843.498335 -14402.591875 -21188.594865   -201.708943                    
V 15  19583.194276 -17579.219408   5153.112818      0.025768                    
P 16    198.533264  26272.431107   1195.522875   -212.966563                    
V 16  -2772.138160  -1694.548059  32358.940088     -0.051121                    
P 17  21428.654632 -15619.560459   1457.833118    330.026832                    
V 17   2277.916777   1003.389768 -32216.217943      0.053294                    
P 18 -24653.595948  -4085.764291  -9082.020941    295.363288                    
V 18  -9524.948038  -6867.809852  28938.509722      0.066917                    
P 19  18550.651237 -17248.541136   7581.126214   -101.053823                    
V 19   9658.900975  -3406.246839 -30290.060530      0.050512                    
P 20 -16281.908375   -580.708954 -21084.090464    526.642526                    
V 20  -6482.714297 -25865.537967   5491.519099     -0.001306                    
P 21   2329.607786  16031.133190 -20384.628626     50.274810                    
V 21 -26331.486566  -8048.280149  -8703.172451      0.041227                    
P 22  11043.140997  23018.811683   7798.998558   -751.342584                    
V 22  -1149.236929  10132.525313 -28866.925548      0.041555                    
P 23 -15194.051599   1221.731333 -21781.690407     72.505593                    
V 23  -4090.183484 -27276.936131   1308.964479      0.078805                    
P 24 -19260.418776 -15138.794467 -10931.320643    -18.907190                    
V 24  13654.554784   1777.378127 -26659.726292     -0.004304                    
P 25 -15025.808386  -8975.905690  19818.161743     53.278881                    
V 25  -2235.421782 -25523.334776 -12842.086639      0.055611                    
P 26  -6465.983963  21646.648183  13744.251744    283.671305                    
V 26  -5589.900754 -16949.685978  24242.456877      0.063786                    
P 27  -6648.422271  19377.470942 -16859.179362   -402.343803                    
V 27 -17855.239682  11589.749339  20867.529533     -0.088789                    
P 28  12294.635513 -13392.320750 -18838.852675    675.596799                    
V 28   2095.752371  25013.958823 -15777.523144     -0.042428                    
P 29 -20409.077068    -58.612134  16984.400668   -200.859602                    
V 29  17320.539786 -12918.107408  20672.491374     -0.080662                    
P 30  20999.187549  -3347.769256 -15993.130100   -307.127435                    
V 30  17636.304834  10466.349907  20680.871926     -0.070647                    
P 31 -12441.405046  10607.621773  20962.623988    -70.521430                    
V 31 -24097.254948 -11416.199634  -8050.671508     -0.024174                    
P 32 -20271.336020  16975.691983   1437.425663    349.762372                    
V 32  -3239.961374  -1357.878225 -31709.509360      0.045130                    
EOF
